NORAD_CAT_ID,OBJECT_NAME,OBJECT_TYPE,EPOCH,MEAN_MOTION,ECCENTRICITY,INCLINATION,RA_OF_ASC_NODE,ARG_OF_PERICENTER,MEAN_ANOMALY,BSTAR,MEAN_MOTION_DOT,MEAN_MOTION_DDOT,TLE_LINE0,TLE_LINE1,TLE_LINE2,SEMIMAJOR_AXIS,PERIOD,APOGEE,PERIGEE,DECAYED
51998.0,STARLINK-3618,PAYLOAD,2023-09-02 19:34:49,15.08845191,0.0001366,53.2136,184.1037,80.7865,279.3282,6.8873e-05,8.09e-06,0.0,0 STARLINK-3618,1 51998U 22025AU  23245.81585066  .00000809  00000-0  68873-4 0  9991,2 51998  53.2136 184.1037 0001366  80.7865 279.3282 15.08845191 82205,6917.865,95.437,540.675,538.785,0.0
51998.0,STARLINK-3618,PAYLOAD,2023-09-03 01:56:22,15.08844875,0.0001371,53.2161,182.9155,84.6587,275.4561,6.0492e-05,6.75e-06,0.0,0 STARLINK-3618,1 51998U 22025AU  23246.08081074  .00000675  00000-0  60492-4 0  9991,2 51998  53.2161 182.9155 0001371  84.6587 275.4561 15.08844875 83756,6917.865,95.437,540.679,538.782,0.0
51998.0,STARLINK-3618,PAYLOAD,2023-09-03 13:04:02,15.08857591,0.0001357,53.2167,180.8351,82.9919,277.1227,0.0001621,2.294e-05,0.0,0 STARLINK-3618,1 51998U 22025AU  23246.54447492  .00002294  00000-0  16210-3 0  9999,2 51998  53.2167 180.8351 0001357  82.9919 277.1227 15.08857591 82319,6917.827,95.436,540.63,538.753,0.0
51998.0,STARLINK-3618,PAYLOAD,2023-09-04 01:47:09,15.08828339,0.0001291,53.2171,178.4554,89.9007,270.2133,-8.2537e-05,-1.601e-05,0.0,0 STARLINK-3618,1 51998U 22025AU  23247.07441868 -.00001601  00000-0 -82537-4 0  9998,2 51998  53.2171 178.4554 0001291  89.9007 270.2133 15.08828339 83908,6917.916,95.438,540.674,538.888,0.0
51998.0,STARLINK-3618,PAYLOAD,2023-09-04 12:54:51,15.08829379,0.0001289,53.2177,176.3743,89.8689,270.2451,-8.9728e-05,-1.715e-05,0.0,0 STARLINK-3618,1 51998U 22025AU  23247.53810074 -.00001715  00000-0 -89728-4 0  9993,2 51998  53.2177 176.3743 0001289  89.8689 270.2451 15.08829379 82461,6917.913,95.438,540.67,538.886,0.0
51998.0,STARLINK-3618,PAYLOAD,2023-09-05 01:37:56,15.08836872,0.0001226,53.2171,173.9955,87.462,272.6512,-2.2464e-05,-6.45e-06,0.0,0 STARLINK-3618,1 51998U 22025AU  23248.06801665 -.00000645  00000-0 -22464-4 0  9993,2 51998  53.2171 173.9955 0001226  87.4620 272.6512 15.08836872 84050,6917.89,95.438,540.603,538.907,0.0
51998.0,STARLINK-3618,PAYLOAD,2023-09-05 04:48:42,15.08839523,0.0001271,53.2173,173.4008,89.3866,270.7272,1.4722e-05,-5.4e-07,0.0,0 STARLINK-3618,1 51998U 22025AU  23248.20049481 -.00000054  00000-0  14722-4 0  9990,2 51998  53.2173 173.4008 0001271  89.3866 270.7272 15.08839523 82561,6917.882,95.438,540.626,538.868,0.0
51998.0,STARLINK-3618,PAYLOAD,2023-09-06 18:57:58,15.08839327,0.0001288,53.2181,166.2645,94.6629,265.451,0.00017635,2.52e-05,0.0,0 STARLINK-3618,1 51998U 22025AU  23249.79025572  .00002520  00000-0  17635-3 0  9994,2 51998  53.2181 166.2645 0001288  94.6629 265.4510 15.08839327 82806,6917.882,95.438,540.638,538.856,0.0
51998.0,STARLINK-3618,PAYLOAD,2023-09-07 01:19:30,15.08839526,0.0001213,53.2178,165.0767,86.8878,273.2253,0.00018022,2.581e-05,0.0,0 STARLINK-3618,1 51998U 22025AU  23250.05521661  .00002581  00000-0  18022-3 0  9993,2 51998  53.2178 165.0767 0001213  86.8878 273.2253 15.08839526 84355,6917.882,95.438,540.586,538.908,0.0
51998.0,STARLINK-3618,PAYLOAD,2023-09-07 17:13:22,15.08837286,8.31e-05,53.2164,162.1047,79.8153,280.2933,7.2668e-05,8.69e-06,0.0,0 STARLINK-3618,1 51998U 22025AU  23250.71762041  .00000869  00000-0  72668-4 0  9999,2 51998  53.2164 162.1047 0000831  79.8153 280.2933 15.08837286 82949,6917.889,95.438,540.329,539.179,0.0
51998.0,STARLINK-3618,PAYLOAD,2023-09-08 01:10:18,15.08837638,0.0001174,53.2177,160.6176,85.0328,275.0798,7.9976e-05,9.85e-06,0.0,0 STARLINK-3618,1 51998U 22025AU  23251.04882077  .00000985  00000-0  79976-4 0  9996,2 51998  53.2177 160.6176 0001174  85.0328 275.0798 15.08837638 84509,6917.888,95.438,540.565,538.94,0.0
51998.0,STARLINK-3618,PAYLOAD,2023-09-09 10:33:24,15.08840327,0.0001426,53.2181,154.3705,84.6884,275.4271,5.4453e-06,-2.01e-06,0.0,0 STARLINK-3618,1 51998U 22025AU  23252.43986219 -.00000201  00000-0  54453-5 0  9999,2 51998  53.2181 154.3705 0001426  84.6884 275.4271 15.08840327 84716,6917.879,95.438,540.731,538.758,0.0
51998.0,STARLINK-3618,PAYLOAD,2023-09-10 02:27:15,15.08845459,0.0001492,53.2184,151.397,82.2704,277.8458,7.7334e-05,9.43e-06,0.0,0 STARLINK-3618,1 51998U 22025AU  23253.10225970  .00000943  00000-0  77334-4 0  9998,2 51998  53.2184 151.3970 0001492  82.2704 277.8458 15.08845459 83306,6917.864,95.437,540.761,538.697,0.0
51998.0,STARLINK-3618,PAYLOAD,2023-09-10 18:21:07,15.08838231,0.0001472,53.218,148.4234,92.3532,267.7629,7.5628e-06,-1.68e-06,0.0,0 STARLINK-3618,1 51998U 22025AU  23253.76466757 -.00000168  00000-0  75628-5 0  9995,2 51998  53.2180 148.4234 0001472  92.3532 267.7629 15.08838231 84917,6917.886,95.438,540.769,538.732,0.0
51998.0,STARLINK-3618,PAYLOAD,2023-09-11 00:42:39,15.08843532,0.0001389,53.2178,147.2337,93.9043,266.2108,9.5943e-05,1.239e-05,0.0,0 STARLINK-3618,1 51998U 22025AU  23254.02962139  .00001239  00000-0  95943-4 0  9990,2 51998  53.2178 147.2337 0001389  93.9043 266.2108 15.08843532 84956,6917.87,95.437,540.695,538.774,0.0
51998.0,STARLINK-3618,PAYLOAD,2023-09-11 10:14:58,15.08841903,0.0001303,53.217,145.4492,92.6903,267.4238,1.8805e-05,1.1e-07,0.0,0 STARLINK-3618,1 51998U 22025AU  23254.42706420  .00000011  00000-0  18805-4 0  9992,2 51998  53.2170 145.4492 0001303  92.6903 267.4238 15.08841903 83504,6917.875,95.437,540.641,538.838,0.0
51998.0,STARLINK-3618,PAYLOAD,2023-09-11 16:36:31,15.08838325,0.0001467,53.2171,144.2599,86.9889,273.1271,7.251e-05,8.66e-06,0.0,0 STARLINK-3618,1 51998U 22025AU  23254.69202648  .00000866  00000-0  72510-4 0  9995,2 51998  53.2171 144.2599 0001467  86.9889 273.1271 15.08838325 85057,6917.886,95.438,540.765,538.736,0.0
51998.0,STARLINK-3618,PAYLOAD,2023-09-12 02:08:49,15.08850263,0.0001399,53.2176,142.4757,91.7007,268.4145,8.6577e-05,1.091e-05,0.0,0 STARLINK-3618,1 51998U 22025AU  23255.08945775  .00001091  00000-0  86577-4 0  9993,2 51998  53.2176 142.4757 0001399  91.7007 268.4145 15.08850263 85117,6917.849,95.437,540.682,538.746,0.0
51998.0,STARLINK-3618,PAYLOAD,2023-09-12 21:13:27,15.08843479,0.0001639,53.2185,138.9083,98.0457,262.0721,6.8987e-05,8.1e-06,0.0,0 STARLINK-3618,1 51998U 22025AU  23255.88434252  .00000810  00000-0  68987-4 0  9997,2 51998  53.2185 138.9083 0001639  98.0457 262.0721 15.08843479 83721,6917.87,95.437,540.869,538.601,0.0
51998.0,STARLINK-3618,PAYLOAD,2023-09-13 01:59:35,15.08857877,0.0001369,53.218,138.0155,98.0221,262.0927,0.00019083,2.752e-05,0.0,0 STARLINK-3618,1 51998U 22025AU  23256.08304918  .00002752  00000-0  19083-3 0  9994,2 51998  53.2180 138.0155 0001369  98.0221 262.0927 15.08857877 83754,6917.826,95.436,540.638,538.744,0.0
51998.0,STARLINK-3618,PAYLOAD,2023-09-13 17:53:28,15.08841429,0.0001665,53.2176,135.0432,93.3213,266.7969,3.1579e-05,2.15e-06,0.0,0 STARLINK-3618,1 51998U 22025AU  23256.74546417  .00000215  00000-0  31579-4 0  9996,2 51998  53.2176 135.0432 0001665  93.3213 266.7969 15.08841429 85364,6917.876,95.437,540.893,538.589,0.0
51998.0,STARLINK-3618,PAYLOAD,2023-09-13 22:39:37,15.08844179,0.0001254,53.2173,134.1516,84.2122,275.9013,8.7092e-05,1.099e-05,0.0,0 STARLINK-3618,1 51998U 22025AU  23256.94418105  .00001099  00000-0  87092-4 0  9992,2 51998  53.2173 134.1516 0001254  84.2122 275.9013 15.08844179 83888,6917.868,95.437,540.6,538.865,0.0
51998.0,STARLINK-3618,PAYLOAD,2023-09-14 01:50:23,15.08849057,0.000136,53.2175,133.5554,89.3773,270.7375,7.0718e-05,8.38e-06,0.0,0 STARLINK-3618,1 51998U 22025AU  23257.07665754  .00000838  00000-0  70718-4 0  9998,2 51998  53.2175 133.5554 0001360  89.3773 270.7375 15.08849057 85416,6917.853,95.437,540.659,538.777,0.0
51998.0,STARLINK-3618,PAYLOAD,2023-09-14 20:55:01,15.08835307,0.0001405,53.2184,129.9876,102.5283,257.5866,-5.1115e-05,-1.101e-05,0.0,0 STARLINK-3618,1 51998U 22025AU  23257.87154547 -.00001101  00000-0 -51115-4 0  9995,2 51998  53.2184 129.9876 0001405 102.5283 257.5866 15.08835307 84023,6917.895,95.438,540.732,538.788,0.0
51998.0,STARLINK-3618,PAYLOAD,2023-09-15 01:41:10,15.08839201,0.0001321,53.2171,129.0949,94.6466,265.4677,-3.9019e-07,-2.94e-06,0.0,0 STARLINK-3618,1 51998U 22025AU  23258.07026421 -.00000294  00000-0 -39019-6 0  9990,2 51998  53.2171 129.0949 0001321  94.6466 265.4677 15.08839201 85567,6917.883,95.438,540.662,538.834,0.0
51998.0,STARLINK-3618,PAYLOAD,2023-09-16 14:15:03,15.08836988,0.0001336,53.2165,122.2572,96.1296,263.9848,0.00012178,1.651e-05,0.0,0 STARLINK-3618,1 51998U 22025AU  23259.59378913  .00001651  00000-0  12178-3 0  9994,2 51998  53.2165 122.2572 0001336  96.1296 263.9848 15.08836988 84281,6917.89,95.438,540.679,538.83,0.0
51998.0,STARLINK-3618,PAYLOAD,2023-09-17 01:22:45,15.08845961,0.0001349,53.2165,120.1753,96.4949,263.6197,0.00023809,3.504e-05,0.0,0 STARLINK-3618,1 51998U 22025AU  23260.05746605  .00003504  00000-0  23809-3 0  9996,2 51998  53.2165 120.1753 0001349  96.4949 263.6197 15.08845961 85861,6917.862,95.437,540.66,538.794,0.0
51998.0,STARLINK-3618,PAYLOAD,2023-09-17 23:38:09,15.08846479,0.0001415,53.2181,116.0109,94.203,265.9124,8.0237e-05,9.89e-06,0.0,0 STARLINK-3618,1 51998U 22025AU  23260.98482819  .00000989  00000-0  80237-4 0  9995,2 51998  53.2181 116.0109 0001415  94.2030 265.9124 15.08846479 86006,6917.861,95.437,540.704,538.747,0.0
51998.0,STARLINK-3618,PAYLOAD,2023-09-18 20:18:09,15.08845826,0.0001338,53.2176,112.1441,93.564,266.5505,9.6355e-05,1.246e-05,0.0,0 STARLINK-3618,1 51998U 22025AU  23261.84594889  .00001246  00000-0  96355-4 0  9997,2 51998  53.2176 112.1441 0001338  93.5640 266.5505 15.08845826 84620,6917.863,95.437,540.653,538.802,0.0
51998.0,STARLINK-3618,PAYLOAD,2023-09-19 18:33:33,15.08849783,0.0001329,53.216,107.9807,82.1695,277.9448,0.00018295,2.626e-05,0.0,0 STARLINK-3618,1 51998U 22025AU  23262.77330416  .00002626  00000-0  18295-3 0  9993,2 51998  53.2160 107.9807 0001329  82.1695 277.9448 15.08849783 86276,6917.85,95.437,540.635,538.796,0.0
